IRIDIUM 119             
1 42959U 17061E   23263.57638921  .00000162  00000+0  50652-4 0  9991
2 42959  86.3913  83.4235 0002269  83.6664 276.4790 14.34218872311390
IRIDIUM 107             
1 42960U 17061F   23263.59539763  .00000176  00000+0  55659-4 0  9996
2 42960  86.3913  83.4308 0002111  81.9380 278.2055 14.34221041311403
IRIDIUM 132             
1 42961U 17061G   23263.74129779  .00000165  00000+0  51998-4 0  9996
2 42961  86.3913  83.3558 0002205  83.4808 276.6639 14.34218452311420
IRIDIUM 136             
1 42962U 17061H   23263.42415520  .00000161  00000+0  50434-4 0  9994
2 42962  86.3913  83.4908 0002339  90.9032 269.2432 14.34220402311394
IRIDIUM 139             
1 42963U 17061J   23263.57002954  .00000163  00000+0  51067-4 0  9999
2 42963  86.3914  83.4758 0002123  83.3860 276.7578 14.34218982311423
IRIDIUM 125             
1 42964U 17061K   23263.55735571  .00000156  00000+0  48703-4 0  9991
2 42964  86.3916  83.5238 0002213  82.2462 277.8985 14.34218163311432
IRIDIUM 135             
1 43070U 17083A   23263.60123835 -.00000106  00000+0 -45042-4 0  9994
2 43070  86.4017  20.1817 0001634  98.4480 261.6902 14.34216728300735
IRIDIUM 138             
1 43071U 17083B   23263.62660926  .00000520  00000+0  17871-3 0  9990
2 43071  86.4007  19.9223 0002209  90.4619 269.6830 14.34220729300720
